start=new Date('2023-03-15T00:00:00.000Z').valueOf();
sats=[{"BSTAR":"0.00003793600000","TIME_SYSTEM":"UTC","OBJECT_ID":"2023-020AM","MEAN_MOTION":"15.71363712","EPHEMERIS_TYPE":"0","REV_AT_EPOCH":"475","RA_OF_ASC_NODE":"174.4873","MEAN_MOTION_DOT":"0.00004527","CENTER_NAME":"EARTH","LAUNCH_DATE":"2023-02-12","SEMIMAJOR_AXIS":"6733.136","GP_ID":"228079395","COUNTRY_CODE":"US","ELEMENT_SET_NO":"999","ARG_OF_PERICENTER":"299.3463","MEAN_ELEMENT_THEORY":"SGP4","OBJECT_NAME":"STARLINK-5748","TLE_LINE2":"2 55604  43.0011 174.4873 0006524 299.3463  60.6753 15.71363712  4757","RCS_SIZE":"LARGE","SITE":"AFETR","DECAY_DATE":null,"CLASSIFICATION_TYPE":"U","TLE_LINE1":"1 55604U 23020AM  23073.33747336  .00004527  00000-0  37936-4 0  9998","MEAN_MOTION_DDOT":"0.0000000000000","NORAD_CAT_ID":"55604","ECCENTRICITY":"0.00065240","OBJECT_TYPE":"PAYLOAD","REF_FRAME":"TEME","EPOCH":"2023-03-14T08:05:57.698304","APOAPSIS":"359.393","MEAN_ANOMALY":"60.6753","FILE":"3860373","INCLINATION":"43.0011","PERIAPSIS":"350.608","PERIOD":"91.640"},{"RA_OF_ASC_NODE":"174.5324","CENTER_NAME":"EARTH","MEAN_MOTION_DOT":"-0.00000802","SEMIMAJOR_AXIS":"6733.175","LAUNCH_DATE":"2023-02-12","COUNTRY_CODE":"US","GP_ID":"228078643","ELEMENT_SET_NO":"999","MEAN_ELEMENT_THEORY":"SGP4","ARG_OF_PERICENTER":"314.1554","OBJECT_NAME":"STARLINK-5725","RCS_SIZE":"LARGE","TLE_LINE2":"2 55605  42.9999 174.5324 0002422 314.1554  45.9114 15.71350050  4751","SITE":"AFETR","BSTAR":"-0.00000266280000","TIME_SYSTEM":"UTC","OBJECT_ID":"2023-020AN","MEAN_MOTION":"15.71350050","EPHEMERIS_TYPE":"0","REV_AT_EPOCH":"475","EPOCH":"2023-03-14T08:14:30.864192","REF_FRAME":"TEME","APOAPSIS":"356.670","INCLINATION":"42.9999","FILE":"3860373","MEAN_ANOMALY":"45.9114","PERIAPSIS":"353.409","PERIOD":"91.641","DECAY_DATE":null,"CLASSIFICATION_TYPE":"U","TLE_LINE1":"1 55605U 23020AN  23073.34341278 -.00000802  00000-0 -26628-5 0  9996","MEAN_MOTION_DDOT":"0.0000000000000","NORAD_CAT_ID":"55605","ECCENTRICITY":"0.00024220","OBJECT_TYPE":"PAYLOAD"},{"MEAN_MOTION":"15.71370814","OBJECT_ID":"2023-020AQ","TIME_SYSTEM":"UTC","BSTAR":"0.00001160300000","REV_AT_EPOCH":"479","EPHEMERIS_TYPE":"0","LAUNCH_DATE":"2023-02-12","SEMIMAJOR_AXIS":"6733.115","MEAN_MOTION_DOT":"0.00001071","CENTER_NAME":"EARTH","RA_OF_ASC_NODE":"172.9908","SITE":"AFETR","RCS_SIZE":"LARGE","TLE_LINE2":"2 55607  42.9971 172.9908 0001561 251.8065 108.2633 15.71370814  4793","OBJECT_NAME":"STARLINK-5700","GP_ID":"228111838","COUNTRY_CODE":"US","ELEMENT_SET_NO":"999","ARG_OF_PERICENTER":"251.8065","MEAN_ELEMENT_THEORY":"SGP4","TLE_LINE1":"1 55607U 23020AQ  23073.59733025  .00001071  00000-0  11603-4 0  9993","CLASSIFICATION_TYPE":"U","DECAY_DATE":null,"ECCENTRICITY":"0.00015610","OBJECT_TYPE":"PAYLOAD","NORAD_CAT_ID":"55607","MEAN_MOTION_DDOT":"0.0000000000000","APOAPSIS":"356.031","REF_FRAME":"TEME","EPOCH":"2023-03-14T14:20:09.333600","PERIOD":"91.640","PERIAPSIS":"353.929","MEAN_ANOMALY":"108.2633","FILE":"3860643","INCLINATION":"42.9971"},{"REV_AT_EPOCH":"475","EPHEMERIS_TYPE":"0","MEAN_MOTION":"15.71365471","TIME_SYSTEM":"UTC","OBJECT_ID":"2023-020AR","BSTAR":"0.00003382300000","SITE":"AFETR","RCS_SIZE":"LARGE","TLE_LINE2":"2 55608  42.9998 174.5258 0003042 267.7520  92.3000 15.71365471  4757","OBJECT_NAME":"STARLINK-5726","MEAN_ELEMENT_THEORY":"SGP4","GP_ID":"228079145","COUNTRY_CODE":"US","ELEMENT_SET_NO":"999","ARG_OF_PERICENTER":"267.7520","SEMIMAJOR_AXIS":"6733.131","LAUNCH_DATE":"2023-02-12","CENTER_NAME":"EARTH","MEAN_MOTION_DOT":"0.00003986","RA_OF_ASC_NODE":"174.5258","ECCENTRICITY":"0.00030420","OBJECT_TYPE":"PAYLOAD","NORAD_CAT_ID":"55608","MEAN_MOTION_DDOT":"0.0000000000000","TLE_LINE1":"1 55608U 23020AR  23073.34287758  .00003986  00000-0  33823-4 0  9999","CLASSIFICATION_TYPE":"U","DECAY_DATE":null,"PERIOD":"91.640","PERIAPSIS":"352.947","FILE":"3860373","MEAN_ANOMALY":"92.3000","INCLINATION":"42.9998","APOAPSIS":"357.044","EPOCH":"2023-03-14T08:13:44.622912","REF_FRAME":"TEME"},{"APOAPSIS":"356.650","REF_FRAME":"TEME","EPOCH":"2023-03-14T08:14:21.380064","PERIOD":"91.640","PERIAPSIS":"353.338","FILE":"3860373","MEAN_ANOMALY":"148.8119","INCLINATION":"42.9973","CLASSIFICATION_TYPE":"U","TLE_LINE1":"1 55609U 23020AS  23073.34330301  .00005458  00000-0  45021-4 0  9992","DECAY_DATE":null,"NORAD_CAT_ID":"55609","OBJECT_TYPE":"PAYLOAD","ECCENTRICITY":"0.00024590","MEAN_MOTION_DDOT":"0.0000000000000","SEMIMAJOR_AXIS":"6733.129","LAUNCH_DATE":"2023-02-12","MEAN_MOTION_DOT":"0.00005458","CENTER_NAME":"EARTH","RA_OF_ASC_NODE":"174.5214","SITE":"AFETR","RCS_SIZE":"LARGE","TLE_LINE2":"2 55609  42.9973 174.5214 0002459 211.2603 148.8119 15.71365989  4752","GP_ID":"228079895","ELEMENT_SET_NO":"999","COUNTRY_CODE":"US","ARG_OF_PERICENTER":"211.2603","MEAN_ELEMENT_THEORY":"SGP4","OBJECT_NAME":"STARLINK-5719","MEAN_MOTION":"15.71365989","BSTAR":"0.00004502100000","OBJECT_ID":"2023-020AS","TIME_SYSTEM":"UTC","EPHEMERIS_TYPE":"0","REV_AT_EPOCH":"475"},{"CLASSIFICATION_TYPE":"U","TLE_LINE1":"1 55610U 23020AT  23073.27889563  .00006745  00000-0  54810-4 0  9991","DECAY_DATE":null,"NORAD_CAT_ID":"55610","OBJECT_TYPE":"PAYLOAD","ECCENTRICITY":"0.00025060","MEAN_MOTION_DDOT":"0.0000000000000","EPOCH":"2023-03-14T06:41:36.582432","REF_FRAME":"TEME","APOAPSIS":"356.672","PERIAPSIS":"353.297","FILE":"3860373","INCLINATION":"42.9989","MEAN_ANOMALY":"81.5071","PERIOD":"91.640","MEAN_MOTION":"15.71369319","BSTAR":"0.00005481000000","TIME_SYSTEM":"UTC","OBJECT_ID":"2023-020AT","EPHEMERIS_TYPE":"0","REV_AT_EPOCH":"474","MEAN_MOTION_DOT":"0.00006745","CENTER_NAME":"EARTH","RA_OF_ASC_NODE":"174.9059","SEMIMAJOR_AXIS":"6733.120","LAUNCH_DATE":"2023-02-12","TLE_LINE2":"2 55610  42.9989 174.9059 0002506 278.5513  81.5071 15.71369319  4741","RCS_SIZE":"LARGE","GP_ID":"228078144","MEAN_ELEMENT_THEORY":"SGP4","COUNTRY_CODE":"US","ELEMENT_SET_NO":"999","ARG_OF_PERICENTER":"278.5513","OBJECT_NAME":"STARLINK-5722","SITE":"AFETR"},{"SITE":"AFETR","OBJECT_NAME":"STARLINK-5730","MEAN_ELEMENT_THEORY":"SGP4","GP_ID":"228083851","COUNTRY_CODE":"US","ELEMENT_SET_NO":"999","ARG_OF_PERICENTER":"268.1206","TLE_LINE2":"2 55611  42.9966 172.9842 0001987 268.1206  91.9434 15.71360013  4796","RCS_SIZE":"LARGE","LAUNCH_DATE":"2023-02-12","SEMIMAJOR_AXIS":"6733.146","RA_OF_ASC_NODE":"172.9842","MEAN_MOTION_DOT":"-0.00000536","CENTER_NAME":"EARTH","REV_AT_EPOCH":"479","EPHEMERIS_TYPE":"0","TIME_SYSTEM":"UTC","OBJECT_ID":"2023-020AU","BSTAR":"-0.00000063979000","MEAN_MOTION":"15.71360013","PERIOD":"91.640","FILE":"3860576","INCLINATION":"42.9966","MEAN_ANOMALY":"91.9434","PERIAPSIS":"353.673","APOAPSIS":"356.349","REF_FRAME":"TEME","EPOCH":"2023-03-14T14:19:24.171456","MEAN_MOTION_DDOT":"0.0000000000000","OBJECT_TYPE":"PAYLOAD","ECCENTRICITY":"0.00019870","NORAD_CAT_ID":"55611","DECAY_DATE":null,"TLE_LINE1":"1 55611U 23020AU  23073.59680754 -.00000536  00000-0 -63979-6 0  9990","CLASSIFICATION_TYPE":"U"},{"EPHEMERIS_TYPE":"0","REV_AT_EPOCH":"475","MEAN_MOTION":"15.71359985","BSTAR":"0.00007667700000","OBJECT_ID":"2023-020AV","TIME_SYSTEM":"UTC","TLE_LINE2":"2 55612  42.9973 174.5176 0001530 238.5367 121.5351 15.71359985  4756","RCS_SIZE":"LARGE","GP_ID":"228079645","COUNTRY_CODE":"US","ELEMENT_SET_NO":"999","ARG_OF_PERICENTER":"238.5367","MEAN_ELEMENT_THEORY":"SGP4","OBJECT_NAME":"STARLINK-5734","SITE":"AFETR","MEAN_MOTION_DOT":"0.00009616","CENTER_NAME":"EARTH","RA_OF_ASC_NODE":"174.5176","SEMIMAJOR_AXIS":"6733.146","LAUNCH_DATE":"2023-02-12","NORAD_CAT_ID":"55612","ECCENTRICITY":"0.00015300","OBJECT_TYPE":"PAYLOAD","MEAN_MOTION_DDOT":"0.0000000000000","CLASSIFICATION_TYPE":"U","TLE_LINE1":"1 55612U 23020AV  23073.34235495  .00009616  00000-0  76677-4 0  9995","DECAY_DATE":null,"PERIAPSIS":"353.981","INCLINATION":"42.9973","FILE":"3860373","MEAN_ANOMALY":"121.5351","PERIOD":"91.640","EPOCH":"2023-03-14T08:12:59.467680","REF_FRAME":"TEME","APOAPSIS":"356.041"},{"MEAN_MOTION":"15.71375729","BSTAR":"0.00004729800000","TIME_SYSTEM":"UTC","OBJECT_ID":"2023-020AW","EPHEMERIS_TYPE":"0","REV_AT_EPOCH":"479","SEMIMAJOR_AXIS":"6733.101","LAUNCH_DATE":"2023-02-12","MEAN_MOTION_DOT":"0.00005760","CENTER_NAME":"EARTH","RA_OF_ASC_NODE":"172.9902","SITE":"AFETR","RCS_SIZE":"LARGE","TLE_LINE2":"2 55613  42.9986 172.9902 0001600 247.4197 112.6501 15.71375729  4794","GP_ID":"228084384","ELEMENT_SET_NO":"999","COUNTRY_CODE":"US","MEAN_ELEMENT_THEORY":"SGP4","ARG_OF_PERICENTER":"247.4197","OBJECT_NAME":"STARLINK-5715","CLASSIFICATION_TYPE":"U","TLE_LINE1":"1 55613U 23020AW  23073.59701437  .00005760  00000-0  47298-4 0  9990","DECAY_DATE":null,"NORAD_CAT_ID":"55613","OBJECT_TYPE":"PAYLOAD","ECCENTRICITY":"0.00016000","MEAN_MOTION_DDOT":"0.0000000000000","APOAPSIS":"356.044","EPOCH":"2023-03-14T14:19:42.041568","REF_FRAME":"TEME","PERIOD":"91.639","PERIAPSIS":"353.889","MEAN_ANOMALY":"112.6501","FILE":"3860559","INCLINATION":"42.9986"},{"RA_OF_ASC_NODE":"170.4074","MEAN_MOTION_DOT":"0.00118625","CENTER_NAME":"EARTH","SEMIMAJOR_AXIS":"6718.010","LAUNCH_DATE":"2023-02-12","OBJECT_NAME":"STARLINK-5714","GP_ID":"228111089","COUNTRY_CODE":"US","ELEMENT_SET_NO":"999","MEAN_ELEMENT_THEORY":"SGP4","ARG_OF_PERICENTER":"29.8828","TLE_LINE2":"2 55614  42.9983 170.4074 0000297  29.8828 244.5061 15.76673544  1300","RCS_SIZE":"LARGE","SITE":"AFETR","OBJECT_ID":"2023-020AX","TIME_SYSTEM":"UTC","BSTAR":"0.00071158000000","MEAN_MOTION":"15.76673544","REV_AT_EPOCH":"130","EPHEMERIS_TYPE":"0","REF_FRAME":"TEME","EPOCH":"2023-03-14T22:00:00.999936","APOAPSIS":"340.075","INCLINATION":"42.9983","FILE":"3860643","MEAN_ANOMALY":"244.5061","PERIAPSIS":"339.676","PERIOD":"91.332","DECAY_DATE":null,"TLE_LINE1":"1 55614U 23020AX  23073.91667824  .00118625  00000-0  71158-3 0  9994","CLASSIFICATION_TYPE":"U","MEAN_MOTION_DDOT":"0.0000000000000","OBJECT_TYPE":"PAYLOAD","ECCENTRICITY":"0.00002970","NORAD_CAT_ID":"55614"}];
